TEVEL2-8                
1 63239U 25052AF  26068.66815442  .00019130  00000+0  69304-3 0  9993
2 63239  97.4055 324.2923 0008031 124.9191 235.2804 15.28392908 54807
STARLINK-33638          
1 63436U 25069D   26068.43606131  .00022588  00000+0  77283-3 0  9994
2 63436  53.1577 143.8151 0001288 102.7718 257.3427 15.30183365 53362
